[{"OBJECT_NAME":"RSW-01","OBJECT_ID":"2021-076A","EPOCH":"2026-03-09T22:50:26.263104","MEAN_MOTION":13.42854538,"ECCENTRICITY":0.00146776,"INCLINATION":86.4145,"RA_OF_ASC_NODE":193.2211,"ARG_OF_PERICENTER":348.7522,"MEAN_ANOMALY":11.3292,"EPHEMERIS_TYPE":0,"CLASSIFICATION_TYPE":"U","NORAD_CAT_ID":49112,"ELEMENT_SET_NO":999,"REV_AT_EPOCH":22256,"BSTAR":-5.297471e-5,"MEAN_MOTION_DOT":-1.5e-7,"MEAN_MOTION_DDOT":0},{"OBJECT_NAME":"HULIANWANG DIGUI-147","OBJECT_ID":"2026-013B","EPOCH":"2026-03-09T18:17:01.201344","MEAN_MOTION":13.45208806,"ECCENTRICITY":0.00021169,"INCLINATION":50.0219,"RA_OF_ASC_NODE":353.0049,"ARG_OF_PERICENTER":22.4343,"MEAN_ANOMALY":337.6628,"EPHEMERIS_TYPE":0,"CLASSIFICATION_TYPE":"U","NORAD_CAT_ID":67523,"ELEMENT_SET_NO":999,"REV_AT_EPOCH":681,"BSTAR":0.00012576751,"MEAN_MOTION_DOT":-5.5e-7,"MEAN_MOTION_DDOT":0}]
